SL-3 R/B                
1 19046U 88032B   23331.58001876  .00006773  00000+0  44320-3 0  9996
2 19046  97.4301 314.5487 0032175 232.6748 127.1548 15.07646374926062
SL-16 R/B               
1 19120U 88039B   23331.54839706  .00000179  00000+0  10778-3 0  9997
2 19120  71.0161  29.8858 0021935 184.2706 175.8236 14.19358616840153
COSMOS 1953             
1 19210U 88050A   23331.28352789  .00007326  00000+0  42277-3 0  9992
2 19210  82.5166 265.7579 0016681 145.9387 214.2918 15.12081353911178
SL-8 R/B                
1 19257U 88053B   23331.63717535  .00000518  00000+0  17957-3 0  9992
2 19257  74.0473 206.8901 0021284 235.6997 145.5149 14.37988872856819
COSMOS 1975             
1 19573U 88093A   23331.20482719  .00006587  00000+0  38948-3 0  9998
2 19573  82.5285 222.9097 0014530 191.3089 168.7817 15.11222552892836
SL-14 R/B               
1 19574U 88093B   23331.46282515  .00001051  00000+0  12276-3 0  9996
2 19574  82.5305 103.2801 0019799 272.8515 151.1264 14.84120629877381
SL-16 R/B               
1 19650U 88102B   23331.56366156  .00000242  00000+0  14691-3 0  9991
2 19650  70.9985 104.1725 0015185 207.2104 152.8225 14.15924249808953
INTERCOSMOS 24          
1 20261U 89080A   23331.39077621  .00001437  00000+0  41848-3 0  9995
2 20261  82.6040 285.6975 1198400  63.5714 308.3293 12.57371208561976
SL-14 R/B               
1 20262U 89080C   23331.51923827  .00000761  00000+0  23286-3 0  9993
2 20262  82.5950 347.8771 1233412 287.9393  59.1203 12.49526474556052
DELTA 1 R/B             
1 20323U 89089B   23331.50320408  .00000905  00000+0  23982-3 0  9998
2 20323  97.0917 292.9833 0069450 230.0463 129.4621 14.49147776774994
ARIANE 40 R/B           
1 20443U 90005H   23331.59083026  .00000707  00000+0  24455-3 0  9998
2 20443  98.4218  36.2223 0010417 180.2194 179.8991 14.38700530772969
DELTA 2 R/B(1)          
1 20453U 90008B   23331.42173116  .00009832  00000+0  42467-3 0  9995
2 20453  35.6206 345.3117 0223926  82.1027 280.5044 15.02062300798956
COSMOS 2058             
1 20465U 90010A   23331.52954988  .00004283  00000+0  32739-3 0  9992
2 20465  82.4847 140.7940 0012844 275.8916  84.0844 15.01650899816797
SL-14 R/B               
1 20466U 90010B   23331.48621834  .00000814  00000+0  99044-4 0  9998
2 20466  82.5012 329.0674 0020875 159.4252 200.7808 14.82128375805008
SL-14 R/B               
1 20511U 90018B   23331.41296068  .00000969  00000+0  12264-3 0  9996
2 20511  82.5214 281.1378 0015989 315.1664 166.9617 14.80757886799208
HST                     
1 20580U 90037B   23331.22538323  .00007535  00000+0  38302-3 0  9992
2 20580  28.4693 261.9084 0002638 348.4165 158.2549 15.14989754646192
SL-16 R/B               
1 20625U 90046B   23331.18080346  .00000231  00000+0  14461-3 0  9990
2 20625  70.9985 248.1162 0012844 138.0289 222.1820 14.14784984730499
COSMOS 2084             
1 20663U 90055A   23331.31069316  .00004076  00000+0  31774-3 0  9998
2 20663  62.7916 280.0335 0128047 101.2640 260.2878 14.96585566811184
SL-6 R/B(2)             
1 20666U 90055D   23331.05201291  .00003984  00000+0  32440-3 0  9990
2 20666  62.7831 194.5677 0111246 123.0772 238.1065 14.96484647813117
SL-8 R/B                
1 20775U 90078B   23331.31622719  .00011839  00000+0  50370-3 0  9997
2 20775  82.9199 259.6341 0495593 222.8951 133.2593 14.53613832686793
SL-8 R/B                
1 21088U 91006B   23331.35714056  .00000148  00000+0  13414-3 0  9996
2 21088  82.9438  69.9016 0022068 206.0376 215.2098 13.77294986649358
OKEAN-3                 
1 21397U 91039A   23331.35709117  .00004185  00000+0  36478-3 0  9997
2 21397  82.5226  59.1653 0015404 273.1362  86.8098 14.96576117740047
COSMOS 2151             
1 21422U 91042A   23331.60359199  .00002906  00000+0  26526-3 0  9991
2 21422  82.4979 163.8179 0013651 352.3162   7.7847 14.94681203738510
SL-14 R/B               
1 21423U 91042B   23331.34849460  .00000882  00000+0  11196-3 0  9996
2 21423  82.4923 280.8754 0019080  96.6181 263.7205 14.80485260729714
ERS-1                   
1 21574U 91050A   23331.58124882  .00000533  00000+0  18918-3 0  9994
2 21574  98.7610 313.9395 0033073 150.4095 209.8972 14.38303890695922
ARIANE 40 R/B           
1 21610U 91050F   23331.15362458  .00000752  00000+0  24415-3 0  9993
2 21610  98.3191  33.6733 0004296  82.5641 277.6037 14.41588894698844
INTERCOSMOS 25          
1 21819U 91086A   23331.37749925  .00002775  00000+0  54658-3 0  9994
2 21819  82.6059  92.2245 1504874 107.7339 269.3295 12.07950771395907
SL-8 R/B                
1 21876U 92008B   23331.62418703  .00000057  00000+0  43582-4 0  9993
2 21876  82.9261 167.2151 0033722 302.4359 117.1903 13.75782020594869
SL-8 R/B                
1 21938U 92020B   23331.34418956  .00000119  00000+0  10772-3 0  9998
2 21938  82.9327  52.6383 0030533 103.4787 324.3699 13.75384548586572
COSMOS 2219             
1 22219U 92076A   23331.43255137  .00000403  00000+0  23753-3 0  9991
2 22219  71.0605 319.5978 0017208  27.1002 333.1015 14.13807206600597
SL-16 R/B               
1 22220U 92076B   23331.62389633  .00000036  00000+0  42052-4 0  9999
2 22220  70.9982 142.8792 0015029 282.6373 145.3157 14.16602936603841
COSMOS 2221             
1 22236U 92080A   23331.53863515  .00003114  00000+0  31510-3 0  9993
2 22236  82.5066 353.5572 0017535 101.4880 258.8309 14.90575633656439
SL-16 R/B               
1 22285U 92093B   23331.40320900  .00000093  00000+0  72059-4 0  9990
2 22285  71.0216 313.2443 0003099 171.5161 188.6014 14.15208394595252
COSMOS 2228             
1 22286U 92094A   23331.47155503  .00003096  00000+0  30993-3 0  9990
2 22286  82.5174 311.2953 0019042 212.6237 147.3807 14.90977426651632
SL-16 R/B               
1 22566U 93016B   23331.57830219  .00000441  00000+0  25193-3 0  9998
2 22566  71.0058 164.6694 0009490 162.5328 197.6123 14.15087207584303
COSMOS 2242             
1 22626U 93024A   23331.53183019  .00003059  00000+0  30857-3 0  9990
2 22626  82.5197 339.9552 0017223 213.4957 146.5174 14.90706604656017
SL-16 R/B               
1 22803U 93059B   23331.40891261  .00000090  00000+0  68353-4 0  9991
2 22803  70.9898 328.0216 0015779  33.2657 326.9455 14.16971943561488
ARIANE 40 R/B           
1 22830U 93061H   23331.16259506  .00000526  00000+0  21263-3 0  9999
2 22830  98.5990  35.9556 0010215 222.0763 137.9637 14.31918639574772
COSMOS 2278             
1 23087U 94023A   23331.58796097  .00000504  00000+0  28981-3 0  9990
2 23087  71.0525 117.6376 0010286 229.3746 130.6483 14.14019584527021
SL-16 R/B               
1 23088U 94023B   23331.55520950  .00000011  00000+0  30517-4 0  9993
2 23088  71.0004  20.2774 0001905 167.1115 193.0056 14.14795546528245
SL-16 R/B               
1 23343U 94074B   23331.63430015  .00001000  00000+0  14642-3 0  9993
2 23343  97.8185  15.9842 0007895  55.5456  60.6516 14.77720994564147
SL-16 R/B               
1 23405U 94077B   23331.36535302 -.00000182  00000+0 -68737-4 0  9997
2 23405  70.9825 305.3559 0004023 311.8340  48.2439 14.15346544498318
ERS-2                   
1 23560U 95021A   23331.55038899  .00117814  00000+0  12682-2 0  9994
2 23560  98.5264 325.5059 0005098  89.4497 270.7343 15.63313268534460
ARIANE 40+ R/B          
1 23561U 95021B   23331.62852284  .00000682  00000+0  23697-3 0  9998
2 23561  98.5556  34.0650 0007977 111.4931  52.8693 14.38617307499415
SL-16 R/B               
1 23705U 95058B   23331.61479124  .00000350  00000+0  20406-3 0  9992
2 23705  71.0208 128.9907 0014360 303.6721  56.3031 14.15270452449971
SL-16 R/B               
1 24298U 96051B   23331.61677439 -.00000048  00000+0  33978-6 0  9999
2 24298  70.8193 136.4351 0018041 282.1915  77.7184 14.12513797404013
ORBVIEW 2 (SEASTAR)     
1 24883U 97037A   23331.36774542  .00000694  00000+0  26341-3 0  9998
2 24883  98.7474 103.5477 0002329  21.9582 338.1702 14.34260131388969
SL-16 R/B               
1 25400U 98043G   23331.44030753  .00000174  00000+0  91957-4 0  9999
2 25400  98.7235 268.2291 0008775 274.5394  85.4783 14.25670184320242
SL-16 R/B               
1 25407U 98045B   23331.60462286 -.00000097  00000+0 -25044-4 0  9996
2 25407  71.0098 133.2215 0009033 228.1940 131.8412 14.15953715309163
ISS (ZARYA)             
1 25544U 98067A   23331.51006944  .00031035  00000+0  55260-3 0  9993
2 25544  51.6432 239.5981 0000682 229.5208 120.1752 15.49847848427115
CZ-4B R/B               
1 25732U 99025C   23331.61230892  .00000233  00000+0  13491-3 0  9995
2 25732  98.7830  14.3028 0036716 215.0561 259.4797 14.17889735270091
OKEAN-O                 
1 25860U 99039A   23331.61587819  .00001581  00000+0  22680-3 0  9993
2 25860  98.0675  19.0680 0001675 107.6889 252.4504 14.77911533311233
SL-16 R/B               
1 25861U 99039B   23331.58940293  .00001206  00000+0  16759-3 0  9993
2 25861  98.1188  10.7867 0016644  74.3155 285.9891 14.79654981313579
DELTA 2 R/B             
1 25876U 99041E   23331.54753510  .00001400  00000+0  27293-3 0  9993
2 25876  51.7641  17.7679 0521949  57.8368 307.2099 14.07147091245519
HELIOS 1B               
1 25977U 99064A   23331.56633121  .00001570  00000+0  19657-3 0  9990
2 25977  98.2694 191.1712 0000410 150.6509 209.4727 14.83781763561565
TERRA                   
1 25994U 99068A   23331.59507878  .00001077  00000+0  23663-3 0  9999
2 25994  98.0769  35.7987 0000547 283.8683 185.8144 14.59456340273490
SL-16 R/B               
1 26070U 00006B   23331.61682297  .00000410  00000+0  23361-3 0  9996
2 26070  71.0037  49.2011 0016460   2.0048 358.1138 14.15583902230656
TITAN 4B R/B            
1 26474U 00047B   23331.04017629  .00004197  00000+0  33443-3 0  9995
2 26474  67.9928 208.0672 0055570 254.2513 105.2498 15.00156937267477
ENVISAT                 
1 27386U 02009A   23331.55625778  .00000308  00000+0  11469-3 0  9998
2 27386  98.2547 295.0386 0001352  84.3169  31.7185 14.38454438139370
